TRANSPORTER-11 OBJECT A 
1 60468U 24149A   26068.74646182  .00010774  00000+0  36054-3 0  9993
2 60468  97.3780 149.0949 0003110 191.0010 169.1164 15.31141332 86830
STARLINK-32474          
1 61260U 24175T   26068.61845015  .00002411  00000+0  93562-4 0  9992
2 61260  53.1598 194.2985 0001228  77.7745 282.3393 15.30183447 81449
